NORAD_CAT_ID,OBJECT_NAME,OBJECT_TYPE,EPOCH,MEAN_MOTION,ECCENTRICITY,INCLINATION,RA_OF_ASC_NODE,ARG_OF_PERICENTER,MEAN_ANOMALY,BSTAR,MEAN_MOTION_DOT,MEAN_MOTION_DDOT,TLE_LINE0,TLE_LINE1,TLE_LINE2,SEMIMAJOR_AXIS,PERIOD,APOGEE,PERIGEE,DECAYED
51139.0,STARLINK-3172,PAYLOAD,2024-05-19 21:16:22,15.08837747,0.0001673,53.2177,16.6148,119.8483,240.2676,-0.00024411,-4.171e-05,0.0,0 STARLINK-3172,1 51139U 22005AM  24140.88636814 -.00004171  00000-0 -24411-3 0  9993,2 51139  53.2177  16.6148 0001673 119.8483 240.2676 15.08837747130396,6917.887,95.438,540.91,538.595,0.0
51139.0,STARLINK-3172,PAYLOAD,2024-05-20 00:27:08,15.08838308,0.0001527,53.2179,16.0197,109.8914,250.2242,-7.1494e-05,-1.426e-05,0.0,0 STARLINK-3172,1 51139U 22005AM  24141.01884970 -.00001426  00000-0 -71494-4 0  9991,2 51139  53.2179  16.0197 0001527 109.8914 250.2242 15.08838308129305,6917.886,95.438,540.807,538.694,0.0
51139.0,STARLINK-3172,PAYLOAD,2024-05-21 00:17:55,15.0883745,0.0001716,53.2179,11.5634,108.1307,251.9872,-2.222e-06,-3.23e-06,0.0,0 STARLINK-3172,1 51139U 22005AM  24142.01245175 -.00000323  00000-0 -22220-5 0  9999,2 51139  53.2179  11.5634 0001716 108.1307 251.9872 15.08837450130563,6917.888,95.438,540.94,538.566,0.0
51139.0,STARLINK-3172,PAYLOAD,2024-05-21 20:57:57,15.08829681,0.0001671,53.2182,7.698,117.9657,242.1504,0.00016685,2.368e-05,0.0,0 STARLINK-3172,1 51139U 22005AM  24142.87358637  .00002368  00000-0  16685-3 0  9996,2 51139  53.2182   7.6980 0001671 117.9657 242.1504 15.08829681130698,6917.912,95.438,540.933,538.621,0.0
51139.0,STARLINK-3172,PAYLOAD,2024-05-21 22:33:21,15.08828409,0.0001506,53.2175,7.3993,114.6897,245.4252,0.00015287,2.145e-05,0.0,0 STARLINK-3172,1 51139U 22005AM  24142.93982744  .00002145  00000-0  15287-3 0  9995,2 51139  53.2175   7.3993 0001506 114.6897 245.4252 15.08828409129598,6917.916,95.438,540.823,538.739,0.0
51139.0,STARLINK-3172,PAYLOAD,2024-05-22 00:08:44,15.08828842,0.0001513,53.2175,7.1013,114.1952,245.9198,0.00014802,2.068e-05,0.0,0 STARLINK-3172,1 51139U 22005AM  24143.00606762  .00002068  00000-0  14802-3 0  9993,2 51139  53.2175   7.1013 0001513 114.1952 245.9198 15.08828842129601,6917.914,95.438,540.826,538.733,0.0
51139.0,STARLINK-3172,PAYLOAD,2024-05-22 20:48:43,15.08868754,0.0001304,53.2172,3.2364,127.3651,232.746,-0.00051776,-8.525e-05,0.0,0 STARLINK-3172,1 51139U 22005AM  24143.86716849 -.00008525  00000-0 -51776-3 0  9992,2 51139  53.2172   3.2364 0001304 127.3651 232.7460 15.08868754130844,6917.793,95.436,540.56,538.755,0.0
51139.0,STARLINK-3172,PAYLOAD,2024-05-22 22:24:07,15.08854963,0.0001344,53.2178,2.9379,97.2701,262.8444,0.00038429,5.836e-05,0.0,0 STARLINK-3172,1 51139U 22005AM  24143.93341986  .00005836  00000-0  38429-3 0  9996,2 51139  53.2178   2.9379 0001344  97.2701 262.8444 15.08854963130851,6917.835,95.437,540.629,538.77,0.0
51139.0,STARLINK-3172,PAYLOAD,2024-05-23 19:04:08,15.08844762,0.0001436,53.2178,359.0686,84.5073,275.6083,0.00019863,2.875e-05,0.0,0 STARLINK-3172,1 51139U 22005AM  24144.79454387  .00002875  00000-0  19863-3 0  9992,2 51139  53.2178 359.0686 0001436  84.5073 275.6083 15.08844762130982,6917.866,95.437,540.724,538.737,0.0
51139.0,STARLINK-3172,PAYLOAD,2024-05-23 20:39:31,15.08847481,0.0001469,53.2171,358.7765,78.9366,281.1791,0.00023122,3.395e-05,0.0,0 STARLINK-3172,1 51139U 22005AM  24144.86078314  .00003395  00000-0  23122-3 0  9993,2 51139  53.2171 358.7765 0001469  78.9366 281.1791 15.08847481129883,6917.858,95.437,540.739,538.706,0.0
51139.0,STARLINK-3172,PAYLOAD,2024-05-23 23:50:17,15.0885115,0.0001506,53.2174,358.177,77.3349,282.7811,0.00027189,4.043e-05,0.0,0 STARLINK-3172,1 51139U 22005AM  24144.99326072  .00004043  00000-0  27189-3 0  9992,2 51139  53.2174 358.1770 0001506  77.3349 282.7811 15.08851150129903,6917.846,95.437,540.753,538.669,0.0
51139.0,STARLINK-3172,PAYLOAD,2024-05-24 20:30:18,15.08839709,0.0001327,53.2172,354.3156,129.5227,230.5882,-0.00010672,-1.986e-05,0.0,0 STARLINK-3172,1 51139U 22005AM  24145.85437976 -.00001986  00000-0 -10672-3 0  9998,2 51139  53.2172 354.3156 0001327 129.5227 230.5882 15.08839709131147,6917.881,95.438,540.664,538.828,0.0
51139.0,STARLINK-3172,PAYLOAD,2024-05-26 13:50:20,15.08833828,0.0001164,53.2168,346.5836,86.8914,273.2211,0.00011776,1.587e-05,0.0,0 STARLINK-3172,1 51139U 22005AM  24147.57662900  .00001587  00000-0  11776-3 0  9997,2 51139  53.2168 346.5836 0001164  86.8914 273.2211 15.08833828130298,6917.899,95.438,540.569,538.959,0.0
51139.0,STARLINK-3172,PAYLOAD,2024-05-26 18:36:30,15.08833863,0.0001114,53.2164,345.6913,78.5479,281.5638,0.00035263,5.328e-05,0.0,0 STARLINK-3172,1 51139U 22005AM  24147.77534964  .00005328  00000-0  35263-3 0  9991,2 51139  53.2164 345.6913 0001114  78.5479 281.5638 15.08833863131430,6917.899,95.438,540.535,538.993,0.0
51139.0,STARLINK-3172,PAYLOAD,2024-05-27 13:41:07,15.08840616,0.00011,53.2161,342.1238,63.1564,296.954,0.00017362,2.476e-05,0.0,0 STARLINK-3172,1 51139U 22005AM  24148.57022712  .00002476  00000-0  17362-3 0  9994,2 51139  53.2161 342.1238 0001100  63.1564 296.9540 15.08840616130445,6917.879,95.438,540.504,538.983,0.0
51139.0,STARLINK-3172,PAYLOAD,2024-05-27 18:27:16,15.08842355,0.0001044,53.2166,341.2301,71.9046,288.206,0.00017933,2.568e-05,0.0,0 STARLINK-3172,1 51139U 22005AM  24148.76894583  .00002568  00000-0  17933-3 0  9994,2 51139  53.2166 341.2301 0001044  71.9046 288.2060 15.08842355130476,6917.873,95.437,540.46,539.016,0.0
51139.0,STARLINK-3172,PAYLOAD,2024-05-28 05:34:58,15.08846201,0.0001115,53.2174,339.1494,74.8276,285.284,0.00015705,2.213e-05,0.0,0 STARLINK-3172,1 51139U 22005AM  24149.23262314  .00002213  00000-0  15705-3 0  9990,2 51139  53.2174 339.1494 0001115  74.8276 285.2840 15.08846201131658,6917.861,95.437,540.498,538.955,0.0
51139.0,STARLINK-3172,PAYLOAD,2024-05-28 21:28:49,15.08844725,0.0001146,53.2176,336.1761,80.5103,279.6019,4.6742e-05,4.56e-06,0.0,0 STARLINK-3172,1 51139U 22005AM  24149.89502280  .00000456  00000-0  46742-4 0  9994,2 51139  53.2176 336.1761 0001146  80.5103 279.6019 15.08844725130643,6917.866,95.437,540.524,538.938,0.0
51139.0,STARLINK-3172,PAYLOAD,2024-05-29 21:19:37,15.08842791,0.0001131,53.2191,331.7099,97.2825,262.8296,5.7162e-05,6.22e-06,0.0,0 STARLINK-3172,1 51139U 22005AM  24150.88862723  .00000622  00000-0  57162-4 0  9999,2 51139  53.2191 331.7099 0001131  97.2825 262.8296 15.08842791130793,6917.872,95.437,540.519,538.954,0.0
51139.0,STARLINK-3172,PAYLOAD,2024-05-30 11:38:05,15.08846094,0.0001075,53.2182,329.036,110.497,249.6138,6.652e-05,7.71e-06,0.0,0 STARLINK-3172,1 51139U 22005AM  24151.48478521  .00000771  00000-0  66520-4 0  9998,2 51139  53.2182 329.0360 0001075 110.4970 249.6138 15.08846094130888,6917.862,95.437,540.47,538.983,0.0
51139.0,STARLINK-3172,PAYLOAD,2024-05-30 19:35:00,15.08858287,0.0001087,53.2178,327.552,99.0791,261.0324,0.000185,2.659e-05,0.0,0 STARLINK-3172,1 51139U 22005AM  24151.81597471  .00002659  00000-0  18500-3 0  9992,2 51139  53.2178 327.5520 0001087  99.0791 261.0324 15.08858287132042,6917.824,95.436,540.441,538.938,0.0
51139.0,STARLINK-3172,PAYLOAD,2024-05-31 11:28:52,15.08847536,0.0001049,53.2172,324.5791,94.5171,265.5941,0.00013359,1.839e-05,0.0,0 STARLINK-3172,1 51139U 22005AM  24152.47838275  .00001839  00000-0  13359-3 0  9991,2 51139  53.2172 324.5791 0001049  94.5171 265.5941 15.08847536131030,6917.857,95.437,540.448,538.997,0.0
51139.0,STARLINK-3172,PAYLOAD,2024-05-31 17:50:24,15.0884833,0.0001117,53.2174,323.3888,94.189,265.9229,0.00015397,2.164e-05,0.0,0 STARLINK-3172,1 51139U 22005AM  24152.74334111  .00002164  00000-0  15397-3 0  9997,2 51139  53.2174 323.3888 0001117  94.1890 265.9229 15.08848330132189,6917.855,95.437,540.493,538.947,0.0
51139.0,STARLINK-3172,PAYLOAD,2024-06-01 11:19:39,15.08841698,0.0001393,53.2162,320.1177,97.2629,262.8521,-5.5804e-06,-3.77e-06,0.0,0 STARLINK-3172,1 51139U 22005AM  24153.47198444 -.00000377  00000-0 -55804-5 0  9990,2 51139  53.2162 320.1177 0001393  97.2629 262.8521 15.08841698132295,6917.875,95.437,540.704,538.777,0.0
51139.0,STARLINK-3172,PAYLOAD,2024-06-01 14:30:25,15.08840712,0.0001279,53.2167,319.5227,103.7479,256.3656,-1.815e-05,-5.77e-06,0.0,0 STARLINK-3172,1 51139U 22005AM  24153.60446427 -.00000577  00000-0 -18150-4 0  9996,2 51139  53.2167 319.5227 0001279 103.7479 256.3656 15.08840712131200,6917.878,95.438,540.628,538.858,0.0
51139.0,STARLINK-3172,PAYLOAD,2024-06-02 11:10:26,15.08834325,0.0001262,53.2159,315.6549,99.528,260.5855,1.5307e-05,-4.4e-07,0.0,0 STARLINK-3172,1 51139U 22005AM  24154.46558947 -.00000044  00000-0  15307-4 0  9991,2 51139  53.2159 315.6549 0001262  99.5280 260.5855 15.08834325132447,6917.898,95.438,540.636,538.89,0.0
51139.0,STARLINK-3172,PAYLOAD,2024-06-02 20:42:45,15.08839855,0.0001228,53.2165,313.8712,96.7811,263.332,6.9003e-05,8.1e-06,0.0,0 STARLINK-3172,1 51139U 22005AM  24154.86302793  .00000810  00000-0  69003-4 0  9993,2 51139  53.2165 313.8712 0001228  96.7811 263.3320 15.08839855131391,6917.881,95.438,540.595,538.896,0.0
51139.0,STARLINK-3172,PAYLOAD,2024-06-03 11:01:14,15.0883841,0.0001491,53.2166,311.1959,87.6543,272.462,0.00014761,2.062e-05,0.0,0 STARLINK-3172,1 51139U 22005AM  24155.45919201  .00002062  00000-0  14761-3 0  9998,2 51139  53.2166 311.1959 0001491  87.6543 272.4620 15.08838410131489,6917.885,95.438,540.782,538.719,0.0
51139.0,STARLINK-3172,PAYLOAD,2024-06-03 17:22:46,15.08846768,0.0001852,53.2172,310.0063,91.9232,268.1973,0.00024765,3.656e-05,0.0,0 STARLINK-3172,1 51139U 22005AM  24155.72414729  .00003656  00000-0  24765-3 0  9998,2 51139  53.2172 310.0063 0001852  91.9232 268.1973 15.08846768132630,6917.86,95.437,541.006,538.444,0.0
51139.0,STARLINK-3172,PAYLOAD,2024-06-03 20:33:32,15.08844978,0.0001422,53.2163,309.4134,87.883,272.2325,0.00024779,3.658e-05,0.0,0 STARLINK-3172,1 51139U 22005AM  24155.85662823  .00003658  00000-0  24779-3 0  9999,2 51139  53.2163 309.4134 0001422  87.8830 272.2325 15.08844978131549,6917.865,95.437,540.714,538.746,0.0
